OBJECT_NAME,OBJECT_ID,EPOCH,MEAN_MOTION,ECCENTRICITY,INCLINATION,RA_OF_ASC_NODE,ARG_OF_PERICENTER,MEAN_ANOMALY,EPHEMERIS_TYPE,CLASSIFICATION_TYPE,NORAD_CAT_ID,ELEMENT_SET_NO,REV_AT_EPOCH,BSTAR,MEAN_MOTION_DOT,MEAN_MOTION_DDOT
BEIDOU-3S IGSO-1S (C31),2015-019A,2026-06-09T21:15:42.344928,1.00252007,.00386437,49.2105,295.5512,190.9335,182.7618,0,U,40549,999,4100,0,-.175E-5,0
GPS BIIF-10 (PRN 08),2015-033A,2026-06-09T05:50:38.567616,2.00556613,.01150352,53.9888,267.4142,30.2017,330.4770,0,U,40730,999,7983,0,-.32E-6,0
BEIDOU-3S M2S (C58),2015-037A,2026-06-08T04:41:04.904160,1.86232387,.00079458,54.8799,302.3560,261.5616,98.3402,0,U,40748,999,7395,0,-.56E-6,0
BEIDOU-3S M1S (C57),2015-037B,2026-06-08T22:34:26.386752,1.86254827,.00036129,54.8752,302.3181,60.8585,299.1687,0,U,40749,999,7397,0,-.58E-6,0
GSAT0205 (GALILEO 9),2015-045A,2026-05-24T07:17:44.873376,1.67409242,.00064058,54.9357,222.4171,263.0112,96.9692,0,U,40889,999,6656,0,-.14E-6,0
GSAT0206 (GALILEO 10),2015-045B,2026-06-09T05:52:58.171872,1.70473930,.0001697,54.9469,221.8239,338.7215,21.3537,0,U,40890,999,6690,0,.46E-6,0
BEIDOU-3S IGSO-2S (C56),2015-053A,2026-06-09T21:06:13.529664,1.00261220,.00652774,49.2333,258.8715,191.8328,219.6473,0,U,40938,999,3928,0,-.151E-5,0
GPS BIIF-11 (PRN 10),2015-062A,2026-06-09T07:11:53.760192,2.00566961,.01116543,56.9540,31.1152,231.1327,127.9172,0,U,41019,999,7767,0,-.64E-6,0
GSAT-15 (GAGAN/PRN 139),2015-065A,2026-06-09T08:38:55.419360,1.00270540,.00039233,0.0513,110.7137,328.9417,41.3237,0,U,41028,999,3872,0,-.241E-5,0
GSAT0209 (GALILEO 12),2015-079A,2026-06-08T19:50:15.209088,1.70473747,.00054173,55.8226,101.4914,340.1691,19.7832,0,U,41174,999,6463,0,.25E-6,0
GSAT0208 (GALILEO 11),2015-079B,2026-06-09T01:07:29.185248,1.70473566,.00048665,55.8209,101.4821,341.4255,18.5295,0,U,41175,999,6505,0,.24E-6,0
IRNSS-1E,2016-003A,2026-06-09T15:34:40.861056,1.00268584,.00179263,33.2186,59.8594,179.3195,4.1979,0,U,41241,999,3800,0,-.299E-5,0
GPS BIIF-12 (PRN 32),2016-007A,2026-06-07T21:28:05.581056,2.00552243,.00962315,55.5185,89.8281,247.4008,111.5747,0,U,41328,999,7565,0,.8E-7,0
COSMOS 2514 (751),2016-008A,2026-06-09T18:38:54.037248,2.13102597,.00109974,65.0265,313.2609,197.5271,162.4316,0,U,41330,999,8046,0,-.35E-6,0
BEIDOU-2 IGSO-6 (C13),2016-021A,2026-06-08T23:55:01.304832,1.00261117,.00571186,60.2137,38.1225,231.5364,79.8340,0,U,41434,999,3739,0,-.154E-5,0
IRNSS-1G,2016-027A,2026-06-09T19:05:05.082144,1.00269826,.00075074,5.1800,97.6441,353.1311,223.2366,0,U,41469,999,3710,0,-.317E-5,0
GSAT0211 (GALILEO 14),2016-030A,2026-06-07T23:56:39.039648,1.70473969,.00027771,55.0982,221.9480,325.1627,34.9006,0,U,41549,999,6251,0,.43E-6,0
GSAT0210 (GALILEO 13),2016-030B,2026-06-08T20:11:48.224832,1.70474105,.00030682,55.0968,221.9227,229.8535,130.2012,0,U,41550,999,6252,0,.45E-6,0
BEIDOU-2 G7 (C03),2016-037A,2026-06-09T22:24:59.886144,1.00268200,.0007175,1.7009,69.2572,3.0833,272.7380,0,U,41586,999,681,0,-.336E-5,0
EUTELSAT 117 WEST B (WAAS/PRN 131),2016-038B,2026-06-09T00:48:06.000192,1.00276750,.00003453,0.0422,159.6913,138.3370,214.4010,0,U,41589,999,3658,0,.4E-7,0
GSAT0207 (GALILEO 15),2016-069A,2026-06-09T02:52:30.794304,1.70473627,.00054236,55.4940,101.3095,327.7880,32.1516,0,U,41859,999,5926,0,.23E-6,0
GSAT0212 (GALILEO 16),2016-069B,2026-06-08T23:21:27.776160,1.70473849,.00046762,55.4916,101.3087,355.4065,4.5623,0,U,41860,999,5951,0,.24E-6,0
GSAT0213 (GALILEO 17),2016-069C,2026-06-09T08:10:18.151104,1.70474169,.00051231,55.4937,101.3064,311.5883,48.3399,0,U,41861,999,5938,0,.22E-6,0
GSAT0214 (GALILEO 18),2016-069D,2026-06-08T21:36:08.572608,1.70473875,.0004328,55.4924,101.3112,318.2384,41.7019,0,U,41862,999,5950,0,.24E-6,0
SES-15 (WAAS/PRN 133),2017-026A,2026-06-08T12:46:06.263616,1.00270105,.00005164,0.0197,332.0701,88.0806,259.1449,0,U,42709,999,734,0,.76E-6,0
QZS-2 (QZSS/PRN 194),2017-028A,2026-06-09T12:56:43.810944,1.00285994,.07605811,39.4388,243.2674,269.1776,81.0235,0,U,42738,999,754,0,-.147E-5,0
QZS-3 (QZSS/PRN 199),2017-048A,2026-06-09T19:04:27.642432,1.00268774,.00026263,0.0574,178.0004,269.8228,223.4719,0,U,42917,999,3218,0,-.331E-5,0
COSMOS 2522 (752),2017-055A,2026-06-09T03:29:37.135680,2.13102030,.0010681,64.0782,192.1582,240.1429,119.8211,0,U,42939,999,6780,0,.105E-5,0
QZS-4 (QZSS/PRN 195),2017-062A,2026-06-09T08:49:24.413952,1.00253241,.0745074,40.1130,343.5833,271.5991,272.5339,0,U,42965,999,3172,0,-.311E-5,0
BEIDOU-3 M1 (C19),2017-069A,2026-06-09T01:53:18.976704,1.86231370,.00105846,56.6846,63.3526,324.9280,35.0271,0,U,43001,999,5845,0,-.46E-6,0
BEIDOU-3 M2 (C20),2017-069B,2026-06-09T13:18:17.023680,1.86231030,.00093053,56.6845,63.3724,348.6077,11.3951,0,U,43002,999,5845,0,-.48E-6,0
